{
  "type": "FeatureCollection",
  "features": [
    {
      "type": "Feature",
      "properties": {
        "norad_id": 34056,
        "name": "COSMOS 2251 DEB",
        "group": "cosmos-2251-debris",
        "lat": -47.713839718504694,
        "lon": 62.38522292800068,
        "alt_km": 919.4991065424556,
        "timestamp": "2025-12-10T07:43:55.172854+00:00",
        "meta_object_name": "COSMOS 2251 DEB",
        "meta_object_id": "1993-036JT",
        "meta_epoch": "2025-12-09T13:28:14.471040",
        "meta_mean_motion": 14.20535185,
        "meta_eccentricity": 0.0124291,
        "meta_inclination": 74.0595,
        "meta_ra_of_asc_node": 82.0605,
        "meta_arg_of_pericenter": 130.7228,
        "meta_mean_anomaly": 249.4825,
        "meta_ephemeris_type": 0,
        "meta_classification_type": "U",
        "meta_norad_cat_id": 34056,
        "meta_element_set_no": 999,
        "meta_rev_at_epoch": 86366,
        "meta_bstar": 0.0016584,
        "meta_mean_motion_dot": 3.829e-05,
        "meta_mean_motion_ddot": 0,
        "tle_line1": "1 34056U 93036JT  25343.56127860  .00003829  00000+0  16584-2 0  9998",
        "tle_line2": "2 34056  74.0595  82.0605 0124291 130.7228 249.4825 14.20535185863660"
      },
      "geometry": {
        "type": "Point",
        "coordinates": [
          62.38522292800068,
          -47.713839718504694
        ]
      }
    },
    {
      "type": "Feature",
      "properties": {
        "norad_id": 34058,
        "name": "COSMOS 2251 DEB",
        "group": "cosmos-2251-debris",
        "lat": -52.04607758898568,
        "lon": 160.34627876753373,
        "alt_km": 1219.4697516236283,
        "timestamp": "2025-12-10T07:43:55.172864+00:00",
        "meta_object_name": "COSMOS 2251 DEB",
        "meta_object_id": "1993-036JV",
        "meta_epoch": "2025-12-09T12:41:11.886720",
        "meta_mean_motion": 13.56069347,
        "meta_eccentricity": 0.03780866,
        "meta_inclination": 73.9315,
        "meta_ra_of_asc_node": 183.3175,
        "meta_arg_of_pericenter": 179.1666,
        "meta_mean_anomaly": 209.6556,
        "meta_ephemeris_type": 0,
        "meta_classification_type": "U",
        "meta_norad_cat_id": 34058,
        "meta_element_set_no": 999,
        "meta_rev_at_epoch": 83099,
        "meta_bstar": 0.00099291425,
        "meta_mean_motion_dot": 1.081e-05,
        "meta_mean_motion_ddot": 0,
        "tle_line1": "1 34058U 93036JV  25343.52860980  .00001081  00000+0  99291-3 0  9998",
        "tle_line2": "2 34058  73.9315 183.3175 0378086 179.1666 209.6556 13.56069347830992"
      },
      "geometry": {
        "type": "Point",
        "coordinates": [
          160.34627876753373,
          -52.04607758898568
        ]
      }
    },
    {
      "type": "Feature",
      "properties": {
        "norad_id": 34059,
        "name": "COSMOS 2251 DEB",
        "group": "cosmos-2251-debris",
        "lat": 38.08083958367646,
        "lon": -156.2023696936219,
        "alt_km": 721.7752878498504,
        "timestamp": "2025-12-10T07:43:55.172874+00:00",
        "meta_object_name": "COSMOS 2251 DEB",
        "meta_object_id": "1993-036JW",
        "meta_epoch": "2025-12-09T13:30:06.505056",
        "meta_mean_motion": 14.52918763,
        "meta_eccentricity": 0.0018698,
        "meta_inclination": 74.0378,
        "meta_ra_of_asc_node": 192.27,
        "meta_arg_of_pericenter": 269.8196,
        "meta_mean_anomaly": 118.5773,
        "meta_ephemeris_type": 0,
        "meta_classification_type": "U",
        "meta_norad_cat_id": 34059,
        "meta_element_set_no": 999,
        "meta_rev_at_epoch": 88413,
        "meta_bstar": 0.0011178,
        "meta_mean_motion_dot": 4.59e-05,
        "meta_mean_motion_ddot": 0,
        "tle_line1": "1 34059U 93036JW  25343.56257529  .00004590  00000+0  11178-2 0  9997",
        "tle_line2": "2 34059  74.0378 192.2700 0018698 269.8196 118.5773 14.52918763884138"
      },
      "geometry": {
        "type": "Point",
        "coordinates": [
          -156.2023696936219,
          38.08083958367646
        ]
      }
    },
    {
      "type": "Feature",
      "properties": {
        "norad_id": 34061,
        "name": "COSMOS 2251 DEB",
        "group": "cosmos-2251-debris",
        "lat": 41.52528683959851,
        "lon": 73.17941459500814,
        "alt_km": 766.4249357177941,
        "timestamp": "2025-12-10T07:43:55.172884+00:00",
        "meta_object_name": "COSMOS 2251 DEB",
        "meta_object_id": "1993-036JY",
        "meta_epoch": "2025-12-09T04:57:02.304288",
        "meta_mean_motion": 14.40344522,
        "meta_eccentricity": 0.00204232,
        "meta_inclination": 74.0402,
        "meta_ra_of_asc_node": 269.9204,
        "meta_arg_of_pericenter": 347.3988,
        "meta_mean_anomaly": 124.9889,
        "meta_ephemeris_type": 0,
        "meta_classification_type": "U",
        "meta_norad_cat_id": 34061,
        "meta_element_set_no": 999,
        "meta_rev_at_epoch": 88129,
        "meta_bstar": 0.00050866953,
        "meta_mean_motion_dot": 1.591e-05,
        "meta_mean_motion_ddot": 0,
        "tle_line1": "1 34061U 93036JY  25343.20627667  .00001591  00000+0  50867-3 0  9992",
        "tle_line2": "2 34061  74.0402 269.9204 0020423 347.3988 124.9889 14.40344522881296"
      },
      "geometry": {
        "type": "Point",
        "coordinates": [
          73.17941459500814,
          41.52528683959851
        ]
      }
    },
    {
      "type": "Feature",
      "properties": {
        "norad_id": 34062,
        "name": "COSMOS 2251 DEB",
        "group": "cosmos-2251-debris",
        "lat": -68.34340794613009,
        "lon": 96.62731650178408,
        "alt_km": 616.3255472334677,
        "timestamp": "2025-12-10T07:43:55.172894+00:00",
        "meta_object_name": "COSMOS 2251 DEB",
        "meta_object_id": "1993-036JZ",
        "meta_epoch": "2025-12-09T17:33:09.324288",
        "meta_mean_motion": 14.78461441,
        "meta_eccentricity": 0.0075206,
        "meta_inclination": 74.0278,
        "meta_ra_of_asc_node": 143.9515,
        "meta_arg_of_pericenter": 223.6348,
        "meta_mean_anomaly": 157.162,
        "meta_ephemeris_type": 0,
        "meta_classification_type": "U",
        "meta_norad_cat_id": 34062,
        "meta_element_set_no": 999,
        "meta_rev_at_epoch": 88551,
        "meta_bstar": 0.0044174,
        "meta_mean_motion_dot": 0.00033921,
        "meta_mean_motion_ddot": 0,
        "tle_line1": "1 34062U 93036JZ  25343.73135792  .00033921  00000+0  44174-2 0  9999",
        "tle_line2": "2 34062  74.0278 143.9515 0075206 223.6348 157.1620 14.78461441885510"
      },
      "geometry": {
        "type": "Point",
        "coordinates": [
          96.62731650178408,
          -68.34340794613009
        ]
      }
    },
    {
      "type": "Feature",
      "properties": {
        "norad_id": 34064,
        "name": "COSMOS 2251 DEB",
        "group": "cosmos-2251-debris",
        "lat": 73.77626658379246,
        "lon": 15.636133569444826,
        "alt_km": 748.9635808707417,
        "timestamp": "2025-12-10T07:43:55.172905+00:00",
        "meta_object_name": "COSMOS 2251 DEB",
        "meta_object_id": "1993-036KB",
        "meta_epoch": "2025-12-09T19:47:39.975936",
        "meta_mean_motion": 14.42322367,
        "meta_eccentricity": 0.0022013,
        "meta_inclination": 74.0333,
        "meta_ra_of_asc_node": 276.2756,
        "meta_arg_of_pericenter": 343.0868,
        "meta_mean_anomaly": 47.9021,
        "meta_ephemeris_type": 0,
        "meta_classification_type": "U",
        "meta_norad_cat_id": 34064,
        "meta_element_set_no": 999,
        "meta_rev_at_epoch": 88100,
        "meta_bstar": 0.00097379,
        "meta_mean_motion_dot": 3.2e-05,
        "meta_mean_motion_ddot": 0,
        "tle_line1": "1 34064U 93036KB  25343.82476824  .00003200  00000+0  97379-3 0  9998",
        "tle_line2": "2 34064  74.0333 276.2756 0022013 343.0868  47.9021 14.42322367881008"
      },
      "geometry": {
        "type": "Point",
        "coordinates": [
          15.636133569444826,
          73.77626658379246
        ]
      }
    },
    {
      "type": "Feature",
      "properties": {
        "norad_id": 34065,
        "name": "COSMOS 2251 DEB",
        "group": "cosmos-2251-debris",
        "lat": 35.16315292390696,
        "lon": 70.94047000386017,
        "alt_km": 771.4096563629764,
        "timestamp": "2025-12-10T07:43:55.172915+00:00",
        "meta_object_name": "COSMOS 2251 DEB",
        "meta_object_id": "1993-036KC",
        "meta_epoch": "2025-12-09T13:31:35.496192",
        "meta_mean_motion": 14.3805755,
        "meta_eccentricity": 0.0016239,
        "meta_inclination": 74.0359,
        "meta_ra_of_asc_node": 263.9708,
        "meta_arg_of_pericenter": 2.1204,
        "meta_mean_anomaly": 175.3828,
        "meta_ephemeris_type": 0,
        "meta_classification_type": "U",
        "meta_norad_cat_id": 34065,
        "meta_element_set_no": 999,
        "meta_rev_at_epoch": 88159,
        "meta_bstar": 0.00031407,
        "meta_mean_motion_dot": 9.26e-06,
        "meta_mean_motion_ddot": 0,
        "tle_line1": "1 34065U 93036KC  25343.56360528  .00000926  00000+0  31407-3 0  9995",
        "tle_line2": "2 34065  74.0359 263.9708 0016239   2.1204 175.3828 14.38057550881596"
      },
      "geometry": {
        "type": "Point",
        "coordinates": [
          70.94047000386017,
          35.16315292390696
        ]
      }
    }
  ]
}